NORAD_CAT_ID,OBJECT_NAME,OBJECT_TYPE,EPOCH,MEAN_MOTION,ECCENTRICITY,INCLINATION,RA_OF_ASC_NODE,ARG_OF_PERICENTER,MEAN_ANOMALY,BSTAR,MEAN_MOTION_DOT,MEAN_MOTION_DDOT,TLE_LINE0,TLE_LINE1,TLE_LINE2,SEMIMAJOR_AXIS,PERIOD,APOGEE,PERIGEE,DECAYED
53850.0,STARLINK-4767,PAYLOAD,2024-06-30 07:26:06,15.08836352,0.0001293,53.2151,185.2653,90.1802,269.9338,1.8966e-05,1.4e-07,0.0,0 STARLINK-4767,1 53850U 22114AJ  24182.30979480  .00000014  00000-0  18966-4 0  9997,2 53850  53.2151 185.2653 0001293  90.1802 269.9338 15.08836352 99778,6917.892,95.438,540.651,538.862,0.0
53850.0,STARLINK-4767,PAYLOAD,2024-06-30 16:58:25,15.08836126,0.00013,53.2153,183.481,88.6865,271.4276,3.3458e-05,2.45e-06,0.0,0 STARLINK-4767,1 53850U 22114AJ  24182.70723541  .00000245  00000-0  33458-4 0  9995,2 53850  53.2153 183.4810 0001300  88.6865 271.4276 15.08836126 99830,6917.892,95.438,540.657,538.858,0.0
53850.0,STARLINK-4767,PAYLOAD,2024-07-01 05:41:30,15.08835405,0.0001312,53.2153,181.1022,91.0136,269.1007,1.3766e-05,-6.9e-07,0.0,0 STARLINK-4767,1 53850U 22114AJ  24183.23715816 -.00000069  00000-0  13766-4 0  9995,2 53850  53.2153 181.1022 0001312  91.0136 269.1007 15.08835405 99376,6917.894,95.438,540.667,538.852,0.0
53850.0,STARLINK-4767,PAYLOAD,2024-07-01 08:52:16,15.08837946,0.0001337,53.2154,180.5076,91.4608,268.6537,3.4098e-05,2.55e-06,0.0,0 STARLINK-4767,1 53850U 22114AJ  24183.36963619  .00000255  00000-0  34098-4 0  9992,2 53850  53.2154 180.5076 0001337  91.4608 268.6537 15.08837946 99930,6917.887,95.438,540.677,538.827,0.0
53850.0,STARLINK-4767,PAYLOAD,2024-07-01 16:49:12,15.08838143,0.0001344,53.2157,179.0208,91.1827,268.9319,4.9978e-05,5.08e-06,0.0,0 STARLINK-4767,1 53850U 22114AJ  24183.70083597  .00000508  00000-0  49978-4 0  9992,2 53850  53.2157 179.0208 0001344  91.1827 268.9319 15.08838143 99987,6917.886,95.438,540.681,538.821,0.0
53850.0,STARLINK-4767,PAYLOAD,2024-07-02 07:07:40,15.0884048,0.0001321,53.2157,176.3442,92.936,267.1783,8.475e-05,1.061e-05,0.0,0 STARLINK-4767,1 53850U 22114AJ  24184.29699442  .00001061  00000-0  84750-4 0  9991,2 53850  53.2157 176.3442 0001321  92.9360 267.1783 15.08840480 99537,6917.879,95.438,540.658,538.83,0.0
53850.0,STARLINK-4767,PAYLOAD,2024-07-02 16:39:59,15.08837665,0.0001318,53.2154,174.5595,89.5064,270.6079,4.2212e-05,3.84e-06,0.0,0 STARLINK-4767,1 53850U 22114AJ  24184.69443765  .00000384  00000-0  42212-4 0  9994,2 53850  53.2154 174.5595 0001318  89.5064 270.6079 15.08837665100139,6917.888,95.438,540.664,538.841,0.0
53850.0,STARLINK-4767,PAYLOAD,2024-07-03 05:23:04,15.08836421,0.0001312,53.2153,172.1805,90.4456,269.6686,1.9871e-05,2.8e-07,0.0,0 STARLINK-4767,1 53850U 22114AJ  24185.22436028  .00000028  00000-0  19871-4 0  9998,2 53850  53.2153 172.1805 0001312  90.4456 269.6686 15.08836421 99673,6917.891,95.438,540.664,538.849,0.0
53850.0,STARLINK-4767,PAYLOAD,2024-07-03 16:30:46,15.08841962,0.0001335,53.2157,170.0992,90.1246,269.9899,5.188e-05,5.38e-06,0.0,0 STARLINK-4767,1 53850U 22114AJ  24185.68803568  .00000538  00000-0  51880-4 0  9997,2 53850  53.2157 170.0992 0001335  90.1246 269.9899 15.08841962100285,6917.874,95.437,540.663,538.816,0.0
53850.0,STARLINK-4767,PAYLOAD,2024-07-04 05:13:50,15.08846078,0.0001302,53.2155,167.7202,90.5505,269.5637,6.6808e-05,7.76e-06,0.0,0 STARLINK-4767,1 53850U 22114AJ  24186.21795102  .00000776  00000-0  66808-4 0  9991,2 53850  53.2155 167.7202 0001302  90.5505 269.5637 15.08846078 99822,6917.862,95.437,540.628,538.826,0.0
53850.0,STARLINK-4767,PAYLOAD,2024-07-04 08:24:37,15.08848144,0.000133,53.2156,167.1255,90.2844,269.83,8.1558e-05,1.011e-05,0.0,0 STARLINK-4767,1 53850U 22114AJ  24186.35042876  .00001011  00000-0  81558-4 0  9991,2 53850  53.2156 167.1255 0001330  90.2844 269.8300 15.08848144100389,6917.855,95.437,540.641,538.8,0.0
53850.0,STARLINK-4767,PAYLOAD,2024-07-04 16:21:32,15.08843456,0.0001319,53.2157,165.6381,91.4231,268.6913,5.9427e-05,6.58e-06,0.0,0 STARLINK-4767,1 53850U 22114AJ  24186.68163095  .00000658  00000-0  59427-4 0  9990,2 53850  53.2157 165.6381 0001319  91.4231 268.6913 15.08843456100437,6917.87,95.437,540.647,538.822,0.0
53850.0,STARLINK-4767,PAYLOAD,2024-07-05 05:04:38,15.08838515,0.0001316,53.216,163.2589,93.942,266.1723,4.8512e-05,4.84e-06,0.0,0 STARLINK-4767,1 53850U 22114AJ  24187.21155407  .00000484  00000-0  48512-4 0  9998,2 53850  53.2160 163.2589 0001316  93.9420 266.1723 15.08838515 99977,6917.885,95.438,540.66,538.84,0.0
53850.0,STARLINK-4767,PAYLOAD,2024-07-05 08:15:24,15.0884158,0.0001359,53.2162,162.664,96.1848,263.9299,4.233e-05,3.86e-06,0.0,0 STARLINK-4767,1 53850U 22114AJ  24187.34403215  .00000386  00000-0  42330-4 0  9998,2 53850  53.2162 162.6640 0001359  96.1848 263.9299 15.08841580100530,6917.876,95.437,540.681,538.8,0.0
53850.0,STARLINK-4767,PAYLOAD,2024-07-05 22:33:53,15.08836807,0.0001483,53.2167,159.9863,101.6502,258.4657,-7.153e-05,-1.426e-05,0.0,0 STARLINK-4767,1 53850U 22114AJ  24187.94019949 -.00001426  00000-0 -71530-4 0  9993,2 53850  53.2167 159.9863 0001483 101.6502 258.4657 15.08836807100621,6917.89,95.438,540.781,538.729,0.0
53850.0,STARLINK-4767,PAYLOAD,2024-07-06 08:06:12,15.0883549,0.0001381,53.2167,158.2033,91.4548,268.6602,-5.8142e-05,-1.213e-05,0.0,0 STARLINK-4767,1 53850U 22114AJ  24188.33764078 -.00001213  00000-0 -58142-4 0  9995,2 53850  53.2167 158.2033 0001381  91.4548 268.6602 15.08835490100142,6917.894,95.438,540.715,538.804,0.0
53850.0,STARLINK-4767,PAYLOAD,2024-07-07 07:56:59,15.08838007,0.0001255,53.2159,153.7441,89.2215,270.8921,2.9038e-05,1.74e-06,0.0,0 STARLINK-4767,1 53850U 22114AJ  24189.33123897  .00000174  00000-0  29038-4 0  9999,2 53850  53.2159 153.7441 0001255  89.2215 270.8921 15.08838007100834,6917.886,95.438,540.62,538.883,0.0
53850.0,STARLINK-4767,PAYLOAD,2024-07-08 14:09:19,15.08835878,0.0001265,53.2159,148.0945,84.4888,275.6248,5.6461e-05,6.11e-06,0.0,0 STARLINK-4767,1 53850U 22114AJ  24190.58980360  .00000611  00000-0  56461-4 0  9990,2 53850  53.2159 148.0945 0001265  84.4888 275.6248 15.08835878101024,6917.893,95.438,540.633,538.883,0.0
53850.0,STARLINK-4767,PAYLOAD,2024-07-09 06:03:09,15.08844601,0.0001285,53.2163,145.1212,85.3376,274.7763,6.5499e-05,7.55e-06,0.0,0 STARLINK-4767,1 53850U 22114AJ  24191.25219890  .00000755  00000-0  65499-4 0  9998,2 53850  53.2163 145.1212 0001285  85.3376 274.7763 15.08844601100584,6917.866,95.437,540.62,538.842,0.0
53850.0,STARLINK-4767,PAYLOAD,2024-07-09 14:00:04,15.08855081,0.0001319,53.2168,143.6348,83.1773,276.9369,0.00014232,1.979e-05,0.0,0 STARLINK-4767,1 53850U 22114AJ  24191.58338809  .00001979  00000-0  14232-3 0  9993,2 53850  53.2168 143.6348 0001319  83.1773 276.9369 15.08855081101173,6917.834,95.437,540.612,538.787,0.0
53850.0,STARLINK-4767,PAYLOAD,2024-07-10 13:50:52,15.08842382,0.0001404,53.217,139.1744,88.007,272.1083,1.4348e-05,-6e-07,0.0,0 STARLINK-4767,1 53850U 22114AJ  24192.57699282 -.00000060  00000-0  14348-4 0  9998,2 53850  53.2170 139.1744 0001404  88.0070 272.1083 15.08842382101323,6917.873,95.437,540.709,538.767,0.0
53850.0,STARLINK-4767,PAYLOAD,2024-07-10 20:12:26,15.08817669,0.0001344,53.2171,137.9836,96.6307,263.4839,-0.00017238,-3.029e-05,0.0,0 STARLINK-4767,1 53850U 22114AJ  24192.84197439 -.00003029  00000-0 -17238-3 0  9994,2 53850  53.2171 137.9836 0001344  96.6307 263.4839 15.08817669100829,6917.949,95.439,540.743,538.884,0.0
53850.0,STARLINK-4767,PAYLOAD,2024-07-11 02:33:58,15.08827143,0.0001454,53.2164,136.7971,89.8146,270.3013,-0.00015795,-2.8e-05,0.0,0 STARLINK-4767,1 53850U 22114AJ  24193.10693077 -.00002800  00000-0 -15795-3 0  9995,2 53850  53.2164 136.7971 0001454  89.8146 270.3013 15.08827143100868,6917.92,95.438,540.791,538.779,0.0
53850.0,STARLINK-4767,PAYLOAD,2024-07-12 02:24:44,15.08845764,0.000142,53.2168,132.3345,98.6232,261.4921,-4.3139e-05,-9.75e-06,0.0,0 STARLINK-4767,1 53850U 22114AJ  24194.10051663 -.00000975  00000-0 -43139-4 0  9990,2 53850  53.2168 132.3345 0001420  98.6232 261.4921 15.08845764101012,6917.863,95.437,540.71,538.745,0.0
53850.0,STARLINK-4767,PAYLOAD,2024-07-12 13:32:26,15.08845405,0.0001506,53.2176,130.2481,106.2445,253.8713,-5.6679e-05,-1.19e-05,0.0,0 STARLINK-4767,1 53850U 22114AJ  24194.56419636 -.00001190  00000-0 -56679-4 0  9991,2 53850  53.2176 130.2481 0001506 106.2445 253.8713 15.08845405101629,6917.864,95.437,540.771,538.687,0.0
53850.0,STARLINK-4767,PAYLOAD,2024-07-12 19:54:00,15.08825768,0.0001454,53.216,129.0591,122.5573,237.556,0.00039171,5.949e-05,0.0,0 STARLINK-4767,1 53850U 22114AJ  24194.82917025  .00005949  00000-0  39171-3 0  9996,2 53850  53.2160 129.0591 0001454 122.5573 237.5560 15.08825768101129,6917.924,95.438,540.795,538.783,0.0
53850.0,STARLINK-4767,PAYLOAD,2024-07-13 02:15:32,15.08833269,0.0001357,53.2164,127.8747,104.5465,255.5678,0.00029106,4.346e-05,0.0,0 STARLINK-4767,1 53850U 22114AJ  24195.09412477  .00004346  00000-0  29106-3 0  9994,2 53850  53.2164 127.8747 0001357 104.5465 255.5678 15.08833269101163,6917.901,95.438,540.705,538.827,0.0
53850.0,STARLINK-4767,PAYLOAD,2024-07-13 05:26:18,15.08842794,0.000154,53.2172,127.2788,107.8844,252.2316,0.00034108,5.145e-05,0.0,0 STARLINK-4767,1 53850U 22114AJ  24195.22660478  .00005145  00000-0  34108-3 0  9991,2 53850  53.2172 127.2788 0001540 107.8844 252.2316 15.08842794101720,6917.872,95.437,540.802,538.671,0.0
53850.0,STARLINK-4767,PAYLOAD,2024-07-13 22:55:33,15.08838067,0.0001471,53.2158,124.0063,105.4543,254.6611,6.8642e-05,8.05e-06,0.0,0 STARLINK-4767,1 53850U 22114AJ  24195.95524938  .00000805  00000-0  68642-4 0  9990,2 53850  53.2158 124.0063 0001471 105.4543 254.6611 15.08838067101832,6917.886,95.438,540.769,538.734,0.0
53850.0,STARLINK-4767,PAYLOAD,2024-07-14 11:38:38,15.0884178,0.0001279,53.2153,121.6264,88.3188,271.795,0.0001274,1.74e-05,0.0,0 STARLINK-4767,1 53850U 22114AJ  24196.48516782  .00001740  00000-0  12740-3 0  9993,2 53850  53.2153 121.6264 0001279  88.3188 271.7950 15.08841780101374,6917.875,95.437,540.625,538.855,0.0
